{
    "links": {
        "self": "http://www.neowsapp.com/rest/v1/neo/54051043?api_key=iIulBulltgU6a56xZRHN4H3l9WmuAYTsLGpBGhQ2"
    },
    "id": "54051043",
    "neo_reference_id": "54051043",
    "name": "(2020 PR2)",
    "designation": "2020 PR2",
    "nasa_jpl_url": "http://ssd.jpl.nasa.gov/sbdb.cgi?sstr=54051043",
    "absolute_magnitude_h": 22.72,
    "estimated_diameter": {
        "kilometers": {
            "estimated_diameter_min": 0.0759547566,
            "estimated_diameter_max": 0.1698399991
        },
        "meters": {
            "estimated_diameter_min": 75.9547566429,
            "estimated_diameter_max": 169.839999068
        },
        "miles": {
            "estimated_diameter_min": 0.0471960831,
            "estimated_diameter_max": 0.1055336501
        },
        "feet": {
            "estimated_diameter_min": 249.1954037843,
            "estimated_diameter_max": 557.2178625422
        }
    },
    "is_potentially_hazardous_asteroid": false,
    "close_approach_data": [
        {
            "close_approach_date": "2015-08-16",
            "close_approach_date_full": "2015-Aug-16 18:39",
            "epoch_date_close_approach": 1439750340000,
            "relative_velocity": {
                "kilometers_per_second": "25.0220158776",
                "kilometers_per_hour": "90079.2571595123",
                "miles_per_hour": "55971.7473166981"
            },
            "miss_distance": {
                "astronomical": "0.4627816168",
                "lunar": "180.0220489352",
                "kilometers": "69231144.148436216",
                "miles": "43018238.1916271408"
            },
            "orbiting_body": "Earth"
        },
        {
            "close_approach_date": "2016-02-11",
            "close_approach_date_full": "2016-Feb-11 13:41",
            "epoch_date_close_approach": 1455198060000,
            "relative_velocity": {
                "kilometers_per_second": "16.7142198831",
                "kilometers_per_hour": "60171.1915790563",
                "miles_per_hour": "37388.038456442"
            },
            "miss_distance": {
                "astronomical": "0.4879419514",
                "lunar": "189.8094190946",
                "kilometers": "72995076.613083518",
                "miles": "45357037.3735998284"
            },
            "orbiting_body": "Earth"
        },
        {
            "close_approach_date": "2020-08-27",
            "close_approach_date_full": "2020-Aug-27 00:20",
            "epoch_date_close_approach": 1598487600000,
            "relative_velocity": {
                "kilometers_per_second": "17.8794247668",
                "kilometers_per_hour": "64365.9291605376",
                "miles_per_hour": "39994.4852608907"
            },
            "miss_distance": {
                "astronomical": "0.164219318",
                "lunar": "63.881314702",
                "kilometers": "24566860.18565266",
                "miles": "15265139.065460308"
            },
            "orbiting_body": "Earth"
        },
        {
            "close_approach_date": "2021-02-01",
            "close_approach_date_full": "2021-Feb-01 09:41",
            "epoch_date_close_approach": 1612172460000,
            "relative_velocity": {
                "kilometers_per_second": "17.9383297929",
                "kilometers_per_hour": "64577.9872544184",
                "miles_per_hour": "40126.2499137246"
            },
            "miss_distance": {
                "astronomical": "0.352646843",
                "lunar": "137.179621927",
                "kilometers": "52755216.57502441",
                "miles": "32780571.524420458"
            },
            "orbiting_body": "Earth"
        }
    ],
    "orbital_data": {
        "orbit_id": "7",
        "orbit_determination_date": "2020-10-26 09:35:25",
        "first_observation_date": "2020-08-09",
        "last_observation_date": "2020-08-21",
        "data_arc_in_days": 12,
        "observations_used": 40,
        "orbit_uncertainty": "8",
        "minimum_orbit_intersection": ".162313",
        "jupiter_tisserand_invariant": "4.496",
        "epoch_osculation": "2459075.5",
        "eccentricity": ".2998968740907813",
        "semi_major_axis": "1.420203451475489",
        "inclination": "33.36792436878206",
        "ascending_node_longitude": "148.098794071942",
        "orbital_period": "618.1932696303907",
        "perihelion_distance": ".9942888758050512",
        "perihelion_argument": "253.7655830169907",
        "aphelion_distance": "1.846118027145927",
        "perihelion_time": "2459155.555567014116",
        "mean_anomaly": "313.3802686944281",
        "mean_motion": ".5823421536362554",
        "equinox": "J2000",
        "orbit_class": {
            "orbit_class_type": "APO",
            "orbit_class_description": "Near-Earth asteroid orbits which cross the Earth’s orbit similar to that of 1862 Apollo",
            "orbit_class_range": "a (semi-major axis) > 1.0 AU; q (perihelion) < 1.017 AU"
        }
    },
    "is_sentry_object": false
}